{
    "links": {
        "self": "http://www.neowsapp.com/rest/v1/neo/3778539?api_key=iIulBulltgU6a56xZRHN4H3l9WmuAYTsLGpBGhQ2"
    },
    "id": "3778539",
    "neo_reference_id": "3778539",
    "name": "(2017 OG7)",
    "designation": "2017 OG7",
    "nasa_jpl_url": "http://ssd.jpl.nasa.gov/sbdb.cgi?sstr=3778539",
    "absolute_magnitude_h": 24.0,
    "estimated_diameter": {
        "kilometers": {
            "estimated_diameter_min": 0.0421264611,
            "estimated_diameter_max": 0.0941976306
        },
        "meters": {
            "estimated_diameter_min": 42.1264610556,
            "estimated_diameter_max": 94.1976305719
        },
        "miles": {
            "estimated_diameter_min": 0.0261761612,
            "estimated_diameter_max": 0.0585316759
        },
        "feet": {
            "estimated_diameter_min": 138.2101784897,
            "estimated_diameter_max": 309.0473542854
        }
    },
    "is_potentially_hazardous_asteroid": false,
    "close_approach_data": [
        {
            "close_approach_date": "2017-08-02",
            "close_approach_date_full": "2017-Aug-02 20:35",
            "epoch_date_close_approach": 1501706100000,
            "relative_velocity": {
                "kilometers_per_second": "6.5032118557",
                "kilometers_per_hour": "23411.5626805296",
                "miles_per_hour": "14547.0346000213"
            },
            "miss_distance": {
                "astronomical": "0.1881587385",
                "lunar": "73.1937492765",
                "kilometers": "28148146.501486995",
                "miles": "17490447.193210731"
            },
            "orbiting_body": "Earth"
        }
    ],
    "orbital_data": {
        "orbit_id": "3",
        "orbit_determination_date": "2017-08-15 06:21:15",
        "first_observation_date": "2017-07-25",
        "last_observation_date": "2017-08-14",
        "data_arc_in_days": 20,
        "observations_used": 26,
        "orbit_uncertainty": "8",
        "minimum_orbit_intersection": ".185505",
        "jupiter_tisserand_invariant": "3.545",
        "epoch_osculation": "2457964.5",
        "eccentricity": ".4448956159590468",
        "semi_major_axis": "2.158509133937483",
        "inclination": "10.40630172291202",
        "ascending_node_longitude": "125.0168498225995",
        "orbital_period": "1158.321888056415",
        "perihelion_distance": "1.198197883241138",
        "perihelion_argument": "189.8257787022109",
        "aphelion_distance": "3.118820384633828",
        "perihelion_time": "2457974.781319662395",
        "mean_anomaly": "356.8046230355945",
        "mean_motion": ".3107944378086953",
        "equinox": "J2000",
        "orbit_class": {
            "orbit_class_type": "AMO",
            "orbit_class_description": "Near-Earth asteroid orbits similar to that of 1221 Amor",
            "orbit_class_range": "1.017 AU < q (perihelion) < 1.3 AU"
        }
    },
    "is_sentry_object": false
}